[{"OBJECT_NAME":"UHETSAT","OBJECT_ID":"2023-185E","EPOCH":"2026-03-09T22:39:26.455680","MEAN_MOTION":15.29797662,"ECCENTRICITY":0.00118435,"INCLINATION":97.3584,"RA_OF_ASC_NODE":137.3576,"ARG_OF_PERICENTER":307.7346,"MEAN_ANOMALY":52.2821,"EPHEMERIS_TYPE":0,"CLASSIFICATION_TYPE":"U","NORAD_CAT_ID":58466,"ELEMENT_SET_NO":999,"REV_AT_EPOCH":12611,"BSTAR":0.00030513019,"MEAN_MOTION_DOT":8.749e-5,"MEAN_MOTION_DDOT":0},{"OBJECT_NAME":"STARLINK-33771","OBJECT_ID":"2025-083AB","EPOCH":"2026-03-09T04:49:01.471872","MEAN_MOTION":15.27597149,"ECCENTRICITY":0.00046232,"INCLINATION":43.0146,"RA_OF_ASC_NODE":11.3577,"ARG_OF_PERICENTER":238.7453,"MEAN_ANOMALY":121.2946,"EPHEMERIS_TYPE":0,"CLASSIFICATION_TYPE":"U","NORAD_CAT_ID":63659,"ELEMENT_SET_NO":999,"REV_AT_EPOCH":4998,"BSTAR":0.0014576921,"MEAN_MOTION_DOT":0.00040098,"MEAN_MOTION_DDOT":0}]
